CCSDS_OMM_VERS = 2.0
CREATION_DATE  = 
ORIGINATOR     = 

OBJECT_NAME    = SL-14 R/B
OBJECT_ID      = 1986-046B
CENTER_NAME    = EARTH
REF_FRAME      = TEME
TIME_SYSTEM    = UTC
MEAN_ELEMENT_THEORY = SGP/SGP4

EPOCH          = 2025-12-07T22:22:03.122976
MEAN_MOTION    = 14.85476390
ECCENTRICITY   = .0023388
INCLINATION    = 82.4812
RA_OF_ASC_NODE = 166.8547
ARG_OF_PERICENTER = 167.7926
MEAN_ANOMALY   = 192.3862

EPHEMERIS_TYPE = 0
CLASSIFICATION_TYPE = U
NORAD_CAT_ID   = 16792
ELEMENT_SET_NO = 999
REV_AT_EPOCH   = 11278
BSTAR          = .92521278E-4
MEAN_MOTION_DOT = .826E-5
MEAN_MOTION_DDOT = 0

CCSDS_OMM_VERS = 2.0
CREATION_DATE  = 
ORIGINATOR     = 

OBJECT_NAME    = SL-14 R/B
OBJECT_ID      = 1986-055B
CENTER_NAME    = EARTH
REF_FRAME      = TEME
TIME_SYSTEM    = UTC
MEAN_ELEMENT_THEORY = SGP/SGP4

EPOCH          = 2025-12-07T22:05:59.637696
MEAN_MOTION    = 14.85523635
ECCENTRICITY   = .00174719
INCLINATION    = 82.5210
RA_OF_ASC_NODE = 212.9006
ARG_OF_PERICENTER = 276.8128
MEAN_ANOMALY   = 93.4464

EPHEMERIS_TYPE = 0
CLASSIFICATION_TYPE = U
NORAD_CAT_ID   = 16882
ELEMENT_SET_NO = 999
REV_AT_EPOCH   = 10574
BSTAR          = .8938427E-4
MEAN_MOTION_DOT = .797E-5
MEAN_MOTION_DDOT = 0

CCSDS_OMM_VERS = 2.0
CREATION_DATE  = 
ORIGINATOR     = 

OBJECT_NAME    = AJISAI (EGS)
OBJECT_ID      = 1986-061A
CENTER_NAME    = EARTH
REF_FRAME      = TEME
TIME_SYSTEM    = UTC
MEAN_ELEMENT_THEORY = SGP/SGP4

EPOCH          = 2025-12-07T22:13:13.950624
MEAN_MOTION    = 12.44514201
ECCENTRICITY   = .00112848
INCLINATION    = 50.0114
RA_OF_ASC_NODE = 15.5195
ARG_OF_PERICENTER = 53.8339
MEAN_ANOMALY   = 21.0447

EPHEMERIS_TYPE = 0
CLASSIFICATION_TYPE = U
NORAD_CAT_ID   = 16908
ELEMENT_SET_NO = 999
REV_AT_EPOCH   = 45657
BSTAR          = .59652883E-4
MEAN_MOTION_DOT = -.89E-6
MEAN_MOTION_DDOT = 0

CCSDS_OMM_VERS = 2.0
CREATION_DATE  = 
ORIGINATOR     = 

OBJECT_NAME    = COSMOS 1812
OBJECT_ID      = 1987-003A
CENTER_NAME    = EARTH
REF_FRAME      = TEME
TIME_SYSTEM    = UTC
MEAN_ELEMENT_THEORY = SGP/SGP4

EPOCH          = 2025-12-07T21:37:59.994048
MEAN_MOTION    = 15.74287166
ECCENTRICITY   = .00073097
INCLINATION    = 82.4876
RA_OF_ASC_NODE = 297.2487
ARG_OF_PERICENTER = 93.4050
MEAN_ANOMALY   = 266.8050

EPHEMERIS_TYPE = 0
CLASSIFICATION_TYPE = U
NORAD_CAT_ID   = 17295
ELEMENT_SET_NO = 999
REV_AT_EPOCH   = 12989
BSTAR          = .6902663E-3
MEAN_MOTION_DOT = .100335E-2
MEAN_MOTION_DDOT = 0

CCSDS_OMM_VERS = 2.0
CREATION_DATE  = 
ORIGINATOR     = 

OBJECT_NAME    = SL-14 R/B
OBJECT_ID      = 1987-024B
CENTER_NAME    = EARTH
REF_FRAME      = TEME
TIME_SYSTEM    = UTC
MEAN_ELEMENT_THEORY = SGP/SGP4

EPOCH          = 2025-12-07T22:21:05.651424
MEAN_MOTION    = 14.86016010
ECCENTRICITY   = .00176682
INCLINATION    = 82.5279
RA_OF_ASC_NODE = 178.9716
ARG_OF_PERICENTER = 200.5066
MEAN_ANOMALY   = 159.5443

EPHEMERIS_TYPE = 0
CLASSIFICATION_TYPE = U
NORAD_CAT_ID   = 17567
ELEMENT_SET_NO = 999
REV_AT_EPOCH   = 7450
BSTAR          = .82181519E-4
MEAN_MOTION_DOT = .744E-5
MEAN_MOTION_DDOT = 0

CCSDS_OMM_VERS = 2.0
CREATION_DATE  = 
ORIGINATOR     = 

OBJECT_NAME    = COSMOS 1833
OBJECT_ID      = 1987-027A
CENTER_NAME    = EARTH
REF_FRAME      = TEME
TIME_SYSTEM    = UTC
MEAN_ELEMENT_THEORY = SGP/SGP4

EPOCH          = 2025-12-07T21:41:44.237472
MEAN_MOTION    = 14.13019717
ECCENTRICITY   = .00223301
INCLINATION    = 70.9134
RA_OF_ASC_NODE = 158.9431
ARG_OF_PERICENTER = 338.4920
MEAN_ANOMALY   = 21.5260

EPHEMERIS_TYPE = 0
CLASSIFICATION_TYPE = U
NORAD_CAT_ID   = 17589
ELEMENT_SET_NO = 999
REV_AT_EPOCH   = 99734
BSTAR          = .71813995E-4
MEAN_MOTION_DOT = .86E-6
MEAN_MOTION_DDOT = 0

CCSDS_OMM_VERS = 2.0
CREATION_DATE  = 
ORIGINATOR     = 

OBJECT_NAME    = SL-16 R/B
OBJECT_ID      = 1987-027B
CENTER_NAME    = EARTH
REF_FRAME      = TEME
TIME_SYSTEM    = UTC
MEAN_ELEMENT_THEORY = SGP/SGP4

EPOCH          = 2025-12-07T18:58:54.474528
MEAN_MOTION    = 14.17152319
ECCENTRICITY   = .0007496
INCLINATION    = 71.0026
RA_OF_ASC_NODE = 110.1458
ARG_OF_PERICENTER = 264.7609
MEAN_ANOMALY   = 95.2659

EPHEMERIS_TYPE = 0
CLASSIFICATION_TYPE = U
NORAD_CAT_ID   = 17590
ELEMENT_SET_NO = 999
REV_AT_EPOCH   = 232
BSTAR          = -.37070564E-4
MEAN_MOTION_DOT = -.123E-5
MEAN_MOTION_DDOT = 0

CCSDS_OMM_VERS = 2.0
CREATION_DATE  = 
ORIGINATOR     = 

OBJECT_NAME    = SL-14 R/B
OBJECT_ID      = 1987-038B
CENTER_NAME    = EARTH
REF_FRAME      = TEME
TIME_SYSTEM    = UTC
MEAN_ELEMENT_THEORY = SGP/SGP4

EPOCH          = 2025-12-07T14:37:55.728192
MEAN_MOTION    = 14.85254488
ECCENTRICITY   = .00208188
INCLINATION    = 82.5021
RA_OF_ASC_NODE = 23.5329
ARG_OF_PERICENTER = 107.8195
MEAN_ANOMALY   = 252.5295

EPHEMERIS_TYPE = 0
CLASSIFICATION_TYPE = U
NORAD_CAT_ID   = 17912
ELEMENT_SET_NO = 999
REV_AT_EPOCH   = 6556
BSTAR          = .93832152E-4
MEAN_MOTION_DOT = .832E-5
MEAN_MOTION_DDOT = 0

CCSDS_OMM_VERS = 2.0
CREATION_DATE  = 
ORIGINATOR     = 

OBJECT_NAME    = COSMOS 1844
OBJECT_ID      = 1987-041A
CENTER_NAME    = EARTH
REF_FRAME      = TEME
TIME_SYSTEM    = UTC
MEAN_ELEMENT_THEORY = SGP/SGP4

EPOCH          = 2025-12-07T23:10:14.815200
MEAN_MOTION    = 14.14526558
ECCENTRICITY   = .00302174
INCLINATION    = 70.8984
RA_OF_ASC_NODE = 227.6410
ARG_OF_PERICENTER = 164.7819
MEAN_ANOMALY   = 195.4219

EPHEMERIS_TYPE = 0
CLASSIFICATION_TYPE = U
NORAD_CAT_ID   = 17973
ELEMENT_SET_NO = 999
REV_AT_EPOCH   = 99061
BSTAR          = -.47663686E-4
MEAN_MOTION_DOT = -.14E-5
MEAN_MOTION_DDOT = 0

CCSDS_OMM_VERS = 2.0
CREATION_DATE  = 
ORIGINATOR     = 

OBJECT_NAME    = SL-14 R/B
OBJECT_ID      = 1987-055B
CENTER_NAME    = EARTH
REF_FRAME      = TEME
TIME_SYSTEM    = UTC
MEAN_ELEMENT_THEORY = SGP/SGP4

EPOCH          = 2025-12-07T17:41:31.254720
MEAN_MOTION    = 14.85513525
ECCENTRICITY   = .00196795
INCLINATION    = 82.5000
RA_OF_ASC_NODE = 75.7026
ARG_OF_PERICENTER = 320.8250
MEAN_ANOMALY   = 39.1540

EPHEMERIS_TYPE = 0
CLASSIFICATION_TYPE = U
NORAD_CAT_ID   = 18153
ELEMENT_SET_NO = 999
REV_AT_EPOCH   = 5628
BSTAR          = .10992328E-3
MEAN_MOTION_DOT = .976E-5
MEAN_MOTION_DDOT = 0

CCSDS_OMM_VERS = 2.0
CREATION_DATE  = 
ORIGINATOR     = 

OBJECT_NAME    = COSMOS 1867
OBJECT_ID      = 1987-060A
CENTER_NAME    = EARTH
REF_FRAME      = TEME
TIME_SYSTEM    = UTC
MEAN_ELEMENT_THEORY = SGP/SGP4

EPOCH          = 2025-12-07T22:07:48.089568
MEAN_MOTION    = 14.31484931
ECCENTRICITY   = .0013647
INCLINATION    = 65.0098
RA_OF_ASC_NODE = 203.6941
ARG_OF_PERICENTER = 270.5930
MEAN_ANOMALY   = 89.3591

EPHEMERIS_TYPE = 0
CLASSIFICATION_TYPE = U
NORAD_CAT_ID   = 18187
ELEMENT_SET_NO = 999
REV_AT_EPOCH   = 680
BSTAR          = .42492883E-4
MEAN_MOTION_DOT = .13E-6
MEAN_MOTION_DDOT = 0

CCSDS_OMM_VERS = 2.0
CREATION_DATE  = 
ORIGINATOR     = 

OBJECT_NAME    = SL-14 R/B
OBJECT_ID      = 1988-001B
CENTER_NAME    = EARTH
REF_FRAME      = TEME
TIME_SYSTEM    = UTC
MEAN_ELEMENT_THEORY = SGP/SGP4

EPOCH          = 2025-12-07T22:17:02.502816
MEAN_MOTION    = 14.85415715
ECCENTRICITY   = .00180311
INCLINATION    = 82.5129
RA_OF_ASC_NODE = 281.6725
ARG_OF_PERICENTER = 176.7968
MEAN_ANOMALY   = 183.3367

EPHEMERIS_TYPE = 0
CLASSIFICATION_TYPE = U
NORAD_CAT_ID   = 18749
ELEMENT_SET_NO = 999
REV_AT_EPOCH   = 2840
BSTAR          = .98337032E-4
MEAN_MOTION_DOT = .873E-5
MEAN_MOTION_DDOT = 0

