SL-14 R/B               
1 16792U 86046B   25341.93198059  .00000826  00000+0  92521-4 0  9996
2 16792  82.4812 166.8547 0023388 167.7926 192.3862 14.85476390112788
SL-14 R/B               
1 16882U 86055B   25341.92082914  .00000797  00000+0  89384-4 0  9997
2 16882  82.5210 212.9006 0017471 276.8128  93.4464 14.85523635105748
AJISAI (EGS)            
1 16908U 86061A   25341.92585591 -.00000089  00000+0  59653-4 0  9993
2 16908  50.0114  15.5195 0011284  53.8339  21.0447 12.44514201456579
COSMOS 1812             
1 17295U 87003A   25341.90138882  .00100335  00000+0  69027-3 0  9994
2 17295  82.4876 297.2487 0007309  93.4050 266.8050 15.74287166129893
SL-14 R/B               
1 17567U 87024B   25341.93131541  .00000744  00000+0  82182-4 0  9998
2 17567  82.5279 178.9716 0017668 200.5066 159.5443 14.86016010 74501
COSMOS 1833             
1 17589U 87027A   25341.90398423  .00000086  00000+0  71814-4 0  9995
2 17589  70.9134 158.9431 0022330 338.4920  21.5260 14.13019717997348
SL-16 R/B               
1 17590U 87027B   25341.79090827 -.00000123  00000+0 -37071-4 0  9992
2 17590  71.0026 110.1458 0007496 264.7609  95.2659 14.17152319  2327
SL-14 R/B               
1 17912U 87038B   25341.60967278  .00000832  00000+0  93832-4 0  9997
2 17912  82.5021  23.5329 0020818 107.8195 252.5295 14.85254488 65565
COSMOS 1844             
1 17973U 87041A   25341.96544925 -.00000140  00000+0 -47664-4 0  9993
2 17973  70.8984 227.6410 0030217 164.7819 195.4219 14.14526558990613
SL-14 R/B               
1 18153U 87055B   25341.73716730  .00000976  00000+0  10992-3 0  9997
2 18153  82.5000  75.7026 0019679 320.8250  39.1540 14.85513525 56286
COSMOS 1867             
1 18187U 87060A   25341.92208437  .00000013  00000+0  42493-4 0  9995
2 18187  65.0098 203.6941 0013647 270.5930  89.3591 14.31484931  6804
SL-14 R/B               
1 18749U 88001B   25341.92850119  .00000873  00000+0  98337-4 0  9997
2 18749  82.5129 281.6725 0018031 176.7968 183.3367 14.85415715 28402
